ION SCV-012             
1 60573U 24149DK  26068.76485468  .00001901  00000+0  18031-3 0  9997
2 60573  97.6849 144.8650 0004618  66.6565 293.5141 14.94705790 85067
STARLINK-34577          
1 64719U 25142Z   26068.84918611  .00001855  00000+0  17351-3 0  9999
2 64719  70.0008 314.0623 0002346 271.1669  88.9220 14.95911073 39517
