[{"OBJECT_NAME":"ION SCV-012","OBJECT_ID":"2024-149DK","EPOCH":"2026-03-09T18:21:23.444352","MEAN_MOTION":14.9470579,"ECCENTRICITY":0.00046179,"INCLINATION":97.6849,"RA_OF_ASC_NODE":144.865,"ARG_OF_PERICENTER":66.6565,"MEAN_ANOMALY":293.5141,"EPHEMERIS_TYPE":0,"CLASSIFICATION_TYPE":"U","NORAD_CAT_ID":60573,"ELEMENT_SET_NO":999,"REV_AT_EPOCH":8506,"BSTAR":0.00018031368,"MEAN_MOTION_DOT":1.901e-5,"MEAN_MOTION_DDOT":0},{"OBJECT_NAME":"STARLINK-34577","OBJECT_ID":"2025-142Z","EPOCH":"2026-03-09T20:22:49.679904","MEAN_MOTION":14.95911073,"ECCENTRICITY":0.0002346,"INCLINATION":70.0008,"RA_OF_ASC_NODE":314.0623,"ARG_OF_PERICENTER":271.1669,"MEAN_ANOMALY":88.922,"EPHEMERIS_TYPE":0,"CLASSIFICATION_TYPE":"U","NORAD_CAT_ID":64719,"ELEMENT_SET_NO":999,"REV_AT_EPOCH":3951,"BSTAR":0.00017350703,"MEAN_MOTION_DOT":1.855e-5,"MEAN_MOTION_DDOT":0}]
